ONEWEB-0269             
1 48987U 21060W   23081.12144360  .00000111  00000+0  25627-3 0  9997
2 48987  87.8962 104.3544 0001744  90.4249 269.7082 13.16595045 85256
ONEWEB-0270             
1 48988U 21060X   23080.75833775  .00000052  00000+0  10217-3 0  9994
2 48988  87.8979 104.4412 0001930 118.4613 241.6713 13.16596637 83945
ONEWEB-0271             
1 48989U 21060Y   23080.82167108  .00000169  00000+0  40783-3 0  9993
2 48989  87.8977 104.4048 0001600 110.1145 250.0158 13.16594796 83954
ONEWEB-0272             
1 48990U 21060Z   23080.76887827  .00000041  00000+0  72715-4 0  9995
2 48990  87.8966 104.4108 0001573 101.0490 259.0818 13.16592618 83898
ONEWEB-0273             
1 48991U 21060AA  23080.79002003  .00000093  00000+0  20897-3 0  9994
2 48991  87.8970 104.4273 0002090  99.3189 260.8178 13.16590650 83877
ONEWEB-0274             
1 48992U 21060AB  23080.81534626  .00000056  00000+0  11271-3 0  9994
2 48992  87.8977 104.4215 0001676 104.4635 255.6682 13.16595713 83916
ONEWEB-0275             
1 48993U 21060AC  23080.80478866  .00000471  00000+0  11983-2 0  9997
2 48993  87.8978 104.4257 0001917  97.4157 262.7192 13.16593902 83847
ONEWEB-0276             
1 48994U 21060AD  23080.76256707  .00000060  00000+0  12290-3 0  9998
2 48994  87.8955 104.4334 0001802 106.8833 253.2496 13.16596072 83852
ONEWEB-0277             
1 48995U 21060AE  23080.77521409 -.00000087  00000+0 -26104-3 0  9994
2 48995  87.8956 104.4334 0001581 110.2971 249.8330 13.16591710 83841
ONEWEB-0278             
1 48996U 21060AF  23080.76467649  .00000048  00000+0  91978-4 0  9996
2 48996  87.8978 104.4208 0001853 100.0712 260.0629 13.16593110 83974
ONEWEB-0279             
1 48997U 21060AG  23080.77311137 -.00000010  00000+0 -60061-4 0  9998
2 48997  87.8973 104.4213 0001872  94.3359 265.7985 13.16593124 83904
ONEWEB-0280             
1 48998U 21060AH  23080.78787736 -.00000038  00000+0 -13324-3 0  9991
2 48998  87.8969 104.4264 0001395 121.9329 238.1937 13.16583750 83848
ONEWEB-0281             
1 48999U 21060AJ  23080.79422962 -.00000070  00000+0 -21618-3 0  9991
2 48999  87.8973 104.4166 0001810  84.7436 275.3902 13.16591268 83918
ONEWEB-0282             
1 49000U 21060AK  23080.82378068  .00000102  00000+0  23362-3 0  9998
2 49000  87.8959 104.4085 0001857 106.7542 253.3793 13.16595144 83898
ONEWEB-0283             
1 49001U 21060AL  23080.81323431  .00000096  00000+0  21785-3 0  9991
2 49001  87.8951 104.3934 0001628 104.5322 255.5990 13.16595917 83904
ONEWEB-0284             
1 49002U 21060AM  23080.80690051  .00000090  00000+0  20196-3 0  9995
2 49002  87.8971 104.4571 0001979 105.3027 254.8323 13.16594296 83883
ONEWEB-0285             
1 49075U 21075A   23080.86261153  .00000210  00000+0  54724-3 0  9992
2 49075  87.8969 225.7313 0001569 107.2330 252.8971 13.12445174 79994
ONEWEB-0286             
1 49076U 21075B   23080.90708763 -.00000047  00000+0 -16603-3 0  9995
2 49076  87.8978 225.7243 0001666  82.6613 277.4705 13.12446724 79355
ONEWEB-0287             
1 49077U 21075C   23080.85577927 -.00000839  00000+0 -21937-2 0  9990
2 49077  87.9107 240.9481 0002161  97.4686 262.6691 13.17652538 77792
ONEWEB-0288             
1 49078U 21075D   23080.89228813 -.00000394  00000+0 -11310-2 0  9992
2 49078  87.8980 225.7285 0001761  96.9458 263.1871 13.12442070 79971
ONEWEB-0289             
1 49079U 21075E   23080.80663897  .00000180  00000+0  43148-3 0  9995
2 49079  87.9100 240.9312 0001512  97.9954 262.1349 13.17654410 78362
ONEWEB-0290             
1 49080U 21075F   23081.16845681  .00000166  00000+0  39456-3 0  9991
2 49080  87.9104 240.8803 0002010 105.7766 254.3587 13.17651734 78807
ONEWEB-0291             
1 49081U 21075G   23080.92504072 -.00000011  00000+0 -62505-4 0  9994
2 49081  87.9108 240.9147 0001917  94.2729 265.8622 13.17652545 77784
ONEWEB-0293             
1 49082U 21075H   23080.79772694  .00000155  00000+0  36535-3 0  9997
2 49082  87.9104 240.9289 0002028 100.5318 259.6042 13.17647824 77799
ONEWEB-0294             
1 49083U 21075J   23080.89757424 -.00000376  00000+0 -10801-2 0  9997
2 49083  87.8977 225.7290 0001966 113.7757 246.3578 13.12443461 79361
ONEWEB-0295             
1 49084U 21075K   23080.79997104  .00000114  00000+0  26020-3 0  9997
2 49084  87.9110 240.8900 0002319  90.2931 269.8466 13.17650590 77759
ONEWEB-0296             
1 49085U 21075L   23080.80547184 -.00000387  00000+0 -11102-2 0  9997
2 49085  87.8977 225.7442 0002638  91.2953 268.8478 13.12443585 79351
ONEWEB-0297             
1 49086U 21075M   23080.91133930 -.00000149  00000+0 -44957-3 0  9991
2 49086  87.8972 225.7167 0001358  89.5626 270.5658 13.12442790 79971
ONEWEB-0298             
1 49087U 21075N   23080.80218329  .00000124  00000+0  28724-3 0  9991
2 49087  87.9109 240.9131 0001701  85.2612 274.8714 13.17649488 77780
ONEWEB-0299             
1 49088U 21075P   23080.80441462  .00000114  00000+0  25996-3 0  9995
2 49088  87.9160 240.9517 0001885  88.3846 271.7501 13.17651860 77767
ONEWEB-0300             
1 49089U 21075Q   23080.90286237 -.00000214  00000+0 -63033-3 0  9991
2 49089  87.8984 225.7227 0001430  94.1943 265.9349 13.12441329 79993
ONEWEB-0301             
1 49090U 21075R   23080.88805372 -.00000416  00000+0 -11910-2 0  9997
2 49090  87.8975 225.7311 0001330 106.8144 253.3130 13.12441782 79354
ONEWEB-0302             
1 49091U 21075S   23080.80016121 -.00000254  00000+0 -74227-3 0  9997
2 49091  87.8972 225.7495 0001920  99.4739 260.6606 13.12439818 79320
ONEWEB-0304             
1 49092U 21075T   23080.85801480 -.00000045  00000+0 -14905-3 0  9998
2 49092  87.9109 240.9080 0001842  90.8456 269.2887 13.17654890 77741
ONEWEB-0305             
1 49093U 21075U   23080.92278880 -.00000072  00000+0 -21959-3 0  9996
2 49093  87.9105 240.9328 0002187  85.2100 274.9281 13.17655900 77788
ONEWEB-0308             
1 49094U 21075V   23080.79489302 -.00000087  00000+0 -27844-3 0  9990
2 49094  87.8979 225.7478 0001557  99.5002 260.6303 13.12441289 79331
ONEWEB-0309             
1 49095U 21075W   23080.85355010 -.00000045  00000+0 -14993-3 0  9991
2 49095  87.9103 240.9521 0002203 104.4772 255.6604 13.17657536 77749
ONEWEB-0310             
1 49096U 21075X   23080.80651339 -.00000368  00000+0 -10576-2 0  9990
2 49096  87.8969 225.7364 0001867 108.9942 251.1389 13.12442167 79962
ONEWEB-0311             
1 49097U 21075Y   23080.48058113 -.00000023  00000+0 -92195-4 0  9993
2 49097  87.9102 241.0284 0001803  79.5841 280.5494 13.17652512 77745
ONEWEB-0312             
1 49098U 21075Z   23080.71955858  .00000048  00000+0  91470-4 0  9992
2 49098  87.9104 240.9486 0001957  95.8261 264.3094 13.17651046 77755
ONEWEB-0313             
1 49099U 21075AA  23080.92728937 -.00000016  00000+0 -74436-4 0  9992
2 49099  87.9101 240.9304 0002061  92.4963 267.6405 13.17652270 77775
ONEWEB-0314             
1 49100U 21075AB  23080.92057345 -.00000015  00000+0 -72430-4 0  9994
2 49100  87.9102 240.9369 0002305  91.2294 268.9101 13.17652905 77744
ONEWEB-0315             
1 49101U 21075AC  23080.85413646  .00000451  00000+0  12195-2 0  9999
2 49101  87.8973 225.7302 0001263  98.0345 262.0927 13.12446885 79951
ONEWEB-0316             
1 49102U 21075AD  23080.40964696 -.00000081  00000+0 -23782-3 0  9993
2 49102  87.9268 210.6985 0001714  90.7417 269.3911 13.18686732 81195
ONEWEB-0317             
1 49103U 21075AE  23080.92616069  .00000390  00000+0  10488-2 0  9998
2 49103  87.8976 225.7208 0001915 107.8816 252.2521 13.12445281 79980
ONEWEB-0318             
1 49104U 21075AF  23080.40755119  .00000014  00000+0  19466-5 0  9993
2 49104  87.9272 210.6860 0001668  88.5454 271.5870 13.18686438 81156
ONEWEB-0319             
1 49105U 21075AG  23080.86250773 -.00000043  00000+0 -14385-3 0  9997
2 49105  87.9103 240.9161 0001993  74.1840 285.9511 13.17651154 77771
ONEWEB-0323             
1 49106U 21075AH  23080.91665027  .00000238  00000+0  62739-3 0  9996
2 49106  87.8977 225.7155 0001724  92.3812 267.7513 13.12443545 79340
ONEWEB-0329             
1 49107U 21075AJ  23080.48727767 -.00000015  00000+0 -71897-4 0  9990
2 49107  87.9105 240.9911 0001960  91.0318 269.1038 13.17652004 77706
ONEWEB-0330             
1 49108U 21075AK  23080.48949600 -.00000422  00000+0 -11191-2 0  9994
2 49108  87.9105 241.0091 0002001  96.4749 263.6611 13.17647622 77742
ONEWEB-0292             
1 49186U 21083A   23080.82101865 -.00000119  00000+0 -36134-3 0  9998
2 49186  87.9113 195.4342 0001659 103.6287 256.5027 13.13472212 75583
ONEWEB-0303             
1 49187U 21083B   23080.85860849 -.00000058  00000+0 -18022-3 0  9994
2 49187  87.9274 210.5993 0001741  92.9740 267.1591 13.18686313 74025
ONEWEB-0306             
1 49188U 21083C   23080.92604967  .00000040  00000+0  68164-4 0  9992
2 49188  87.9267 210.5759 0001653  83.3070 276.8250 13.18685310 74070
ONEWEB-0307             
1 49189U 21083D   23080.81677585 -.00000188  00000+0 -55021-3 0  9999
2 49189  87.9110 195.4343 0001774 107.8618 252.2705 13.13472752 75581
ONEWEB-0320             
1 49190U 21083E   23080.85648426  .00000034  00000+0  53883-4 0  9990
2 49190  87.9273 210.6092 0001761 108.1209 252.0115 13.18688182 74022
ONEWEB-0321             
1 49191U 21083F   23080.87607583  .00000028  00000+0  36419-4 0  9991
2 49191  87.9299 149.9847 0001646 113.7861 246.3445 13.20774305 80633
ONEWEB-0322             
1 49192U 21083G   23080.81254240 -.00000219  00000+0 -63401-3 0  9998
2 49192  87.9108 195.4224 0002210 124.2880 235.8458 13.13470502 75572
ONEWEB-0324             
1 49193U 21083H   23080.91760087  .00000059  00000+0  11656-3 0  9996
2 49193  87.9267 210.5801 0001873  90.3077 269.8269 13.18682891 74054
ONEWEB-0325             
1 49194U 21083J   23080.92184166  .00000057  00000+0  11278-3 0  9994
2 49194  87.9245 210.4812 0001505 102.8113 257.3187 13.18681263 74068
